FLOCK 4A-17             
1 44088U 19018L   22288.11534600  .00026238  00000+0  71893-3 0  9996
2 44088  97.2972 347.2441 0010208  52.9749 307.2428 15.37234377197032
FLOCK 4A-19             
1 44090U 19018N   22288.40821258  .00055361  00000+0  14953-2 0  9991
2 44090  97.2971 347.5634 0011365  51.2949 308.9310 15.37500537194770
FLOCK 4A-6              
1 44094U 19018S   22288.13239365  .00049338  00000+0  13456-2 0  9991
2 44094  97.2975 347.4451 0009023  58.9909 301.2221 15.37253324197052
FLOCK 4A-5              
1 44095U 19018T   22288.14121249  .00046055  00000+0  13137-2 0  9993
2 44095  97.2977 346.8354 0008908  60.0672 300.1456 15.35871571197003
FLOCK 4A-11             
1 44096U 19018U   22288.16507180  .00035484  00000+0  97063-3 0  9993
2 44096  97.2983 347.5888 0008875  60.9011 299.3121 15.37237765197056
FLOCK 4A-9              
1 44098U 19018W   22288.15090116  .00056947  00000+0  15095-2 0  9991
2 44098  97.2987 347.6409 0008709  66.5823 293.6337 15.38101851197054
FLOCK 4P-10             
1 44808U 19081E   22288.16206841  .00040521  00000+0  13110-2 0  9992
2 44808  97.3872 352.4212 0010843 150.3456 209.8403 15.31884624160196
FLOCK 4P-11             
1 44809U 19081F   22288.13136905  .00019796  00000+0  65516-3 0  9991
2 44809  97.3872 352.4338 0011090 150.6749 209.5116 15.31302419160194
FLOCK 4P-4              
1 44811U 19081H   22288.16565574  .00043029  00000+0  13265-2 0  9994
2 44811  97.3936 353.4822 0010166 138.8616 221.3394 15.33422771160232
FLOCK 4P-3              
1 44812U 19081J   22288.16360809  .00046691  00000+0  13975-2 0  9995
2 44812  97.3921 353.6011 0009688 139.4778 220.7188 15.34345637160243
FLOCK 4P-1              
1 44814U 19081L   22287.58926497  .00038729  00000+0  12942-2 0  9999
2 44814  97.3897 351.8299 0009666 148.6624 211.5195 15.30864358160094
FLOCK 4P-7              
1 44816U 19081N   22288.18127435  .00019179  00000+0  63511-3 0  9990
2 44816  97.3953 352.6433 0010815 134.9549 225.2571 15.31293662160208
FLOCK 4P-5              
1 44818U 19081Q   22288.14756069  .00038541  00000+0  12529-2 0  9995
2 44818  97.3891 352.7128 0008959 142.1879 217.9993 15.31761184160201
SKYSAT-C14              
1 45788U 20038BL  22287.60792615  .00049968  00000+0  59661-3 0  9997
2 45788  52.9899 105.4717 0002134 123.4302 236.6914 15.60556972133257
SKYSAT-C16              
1 45789U 20038BM  22287.89553344  .00052788  00000+0  61833-3 0  9991
2 45789  52.9914 103.7767 0006528 237.2776 122.7607 15.61012893133290
SKYSAT-C15              
1 45790U 20038BN  22287.78088778  .00055282  00000+0  64737-3 0  9993
2 45790  52.9893 104.3674 0005529 159.3480 200.7757 15.61006999133279
SKYSAT-C17              
1 46179U 20057BQ  22287.47089775  .00054194  00000+0  65871-3 0  9991
2 46179  52.9905 198.8361 0004386  93.0586 267.0927 15.60047897122507
SKYSAT-C18              
1 46180U 20057BR  22288.02963482  .00053372  00000+0  62558-3 0  9997
2 46180  52.9853 196.2161 0008222 159.5543 200.5799 15.60976533122614
SKYSAT-C19              
1 46235U 20057BS  22288.01602837  .00050249  00000+0  60937-3 0  9990
2 46235  52.9865 192.6398 0013900 304.6074  55.3626 15.60037351122667
FLOCK 4V-11             
1 46285U 20061P   22287.78546670  .00013003  00000+0  67521-3 0  9998
2 46285  97.4364 355.4955 0003162 181.0024 179.1204 15.16233343116568
FLOCK 4V-14             
1 46286U 20061Q   22288.17454332  .00022532  00000+0  11674-2 0  9990
2 46286  97.4359 355.8978 0003570 155.4810 204.6593 15.16191955116627
FLOCK 4V-8              
1 46288U 20061S   22287.44082642  .00008571  00000+0  44729-3 0  9997
2 46288  97.4363 355.1749 0002239 182.6634 177.4587 15.16172812116429
FLOCK 4V-6              
1 46289U 20061T   22287.76355689  .00011705  00000+0  60905-3 0  9994
2 46289  97.4375 355.5461 0001389 195.2817 164.8374 15.16189350116560
FLOCK 4V-5              
1 46290U 20061U   22288.12387399  .00006543  00000+0  36400-3 0  9997
2 46290  97.4367 355.4937 0002113 185.4726 174.6483 15.13991030116592
FLOCK 4V-7              
1 46291U 20061V   22288.13106202  .00011446  00000+0  59467-3 0  9997
2 46291  97.4347 355.9582 0002033 175.1732 184.9520 15.16248824116513
FLOCK 4V-10             
1 46296U 20061AA  22288.14581778  .00009325  00000+0  48693-3 0  9990
2 46296  97.4368 356.1372 0001925 109.6115 250.5326 15.16125897116593
FLOCK 4V-13             
1 46297U 20061AB  22287.14876521  .00007256  00000+0  37950-3 0  9998
2 46297  97.4372 355.1763 0002676 117.1528 242.9978 15.16147304116425
FLOCK 4V-1              
1 46313U 20061AT  22288.12476504  .00012229  00000+0  63604-3 0  9994
2 46313  97.4379 356.4855 0004251 114.5821 245.5855 15.16187558116603
FLOCK 4V-4              
1 46314U 20061AU  22288.15423923  .00015406  00000+0  79880-3 0  9998
2 46314  97.4361 356.4451 0007582 126.2799 233.9136 15.16227024116652
FLOCK 4V-2              
1 46321U 20061BB  22288.18587349  .00024168  00000+0  11912-2 0  9998
2 46321  97.4374 357.1686 0004368 118.6001 241.5672 15.17926757116584
FLOCK 4V-16             
1 46527U 20061BD  22287.47132551  .00012974  00000+0  54936-3 0  9994
2 46527  97.3879 356.5552 0008189  69.4686 290.7429 15.23270356112983
FLOCK 4V-15             
1 46528U 20061BE  22288.14392210  .00021740  00000+0  91207-3 0  9993
2 46528  97.3859 357.6307 0004067  94.0012 266.1690 15.23492138113476
FLOCK 4V-17             
1 46529U 20061BF  22288.10672555  .00026693  00000+0  11200-2 0  9999
2 46529  97.3824 357.2397 0004580  82.6290 277.5468 15.23443803112669
FLOCK 4V-18             
1 46597U 20061BG  22288.15196812  .00031056  00000+0  12989-2 0  9990
2 46597  97.3926 357.8724 0007814  73.1988 287.0105 15.23501571112031
FLOCK 4V-19             
1 46609U 20061BH  22288.17925374  .00028162  00000+0  11834-2 0  9991
2 46609  97.3799 357.1391 0004224  68.5709 291.5978 15.23383201111605
FLOCK 4V-20             
1 46612U 20061BJ  22288.20068082  .00012926  00000+0  56241-3 0  9996
2 46612  97.3915 357.6678 0008104  78.7943 281.4204 15.22345976111095
FLOCK 4V-22             
1 46735U 20061BL  22287.93623217  .00026609  00000+0  11138-2 0  9996
2 46735  97.3737 356.2450 0006799  36.5313 323.5641 15.23514344109905
FLOCK 4V-23             
1 46737U 20061BM  22288.16601302  .00027020  00000+0  11336-2 0  9993
2 46737  97.3816 357.1263 0004778  55.4027 304.7660 15.23444352109873
FLOCK 4V-24             
1 46738U 20061BN  22288.15913420  .00013320  00000+0  56281-3 0  9997
2 46738  97.3950 357.8510 0007410  86.6707 273.5352 15.23341505109442
FLOCK 4V-25             
1 46812U 20061BP  22287.92388676  .00018393  00000+0  77517-3 0  9993
2 46812  97.3829 356.9519 0006169  67.3618 292.8417 15.23363700109050
FLOCK 4E'-1             
1 46813U 20077A   22288.53041282  .00040640  00000+0  16312-2 0  9993
2 46813  97.4067 349.7322 0010061   1.7890 358.3382 15.24809725108756
FLOCK 4E'-7             
1 46814U 20077B   22288.41616293  .00022015  00000+0  89032-3 0  9997
2 46814  97.4072 349.7522 0010845 358.0766   2.0428 15.24681674108749
FLOCK 4E'-9             
1 46815U 20077C   22288.50505207  .00007101  00000+0  32083-3 0  9993
2 46815  97.4054 349.0255 0010692 354.2542   5.8569 15.21210637108725
FLOCK 4E'-8             
1 46816U 20077D   22288.37831667  .00054012  00000+0  19500-2 0  9992
2 46816  97.4082 350.4226 0007551 337.5257  22.5651 15.28276531108773
FLOCK 4E'-5             
1 46817U 20077E   22288.51649788  .00023471  00000+0  94563-3 0  9998
2 46817  97.4098 350.5670 0011674 338.6151  21.4598 15.24787795108796
FLOCK 4E'-3             
1 46819U 20077G   22288.49919698  .00011864  00000+0  48019-3 0  9995
2 46819  97.4071 350.3607 0012222 334.5986  25.4649 15.24779591108794
FLOCK 4E'-2             
1 46820U 20077H   22288.49266042  .00017525  00000+0  70797-3 0  9993
2 46820  97.4136 350.8604 0011144 324.6925  35.3574 15.24763157108793
FLOCK 4E'-4             
1 46821U 20077J   22288.48883722  .00010829  00000+0  46663-3 0  9998
2 46821  97.4093 350.3408 0012138 319.7665  40.2672 15.22687529108748
FLOCK 4E'-6             
1 46822U 20077K   22288.59742335  .00010404  00000+0  45780-3 0  9993
2 46822  97.4078 349.5580 0011784 329.4814  30.5716 15.21986568108771
FLOCK 4V-26             
1 46825U 20061BQ  22288.62666347  .00029169  00000+0  12251-2 0  9995
2 46825  97.3892 358.2609 0006824  84.7088 275.6706 15.23378979108694
FLOCK 4S-22             
1 47452U 21006AR  22288.11682737  .00015393  00000+0  75414-3 0  9992
2 47452  97.4301 345.2126 0009353 212.3405 147.7257 15.18204749 95411
FLOCK 4S-21             
1 47456U 21006AV  22288.12057960  .00028486  00000+0  13892-2 0  9999
2 47456  97.4316 345.2719 0009238 210.8991 149.1701 15.18233503 95414
FLOCK 4S-11             
1 47462U 21006BB  22288.15861251  .00008342  00000+0  45528-3 0  9996
2 47462  97.4268 343.3622 0006594 237.9115 122.1477 15.14575223 95313
FLOCK 4S-33             
1 47469U 21006BJ  22287.88392977  .00015021  00000+0  73427-3 0  9997
2 47469  97.4266 344.3148 0005363 227.8504 132.2275 15.18312603 95352
FLOCK 4S-12             
1 47471U 21006BL  22288.14297390  .00032151  00000+0  15619-2 0  9994
2 47471  97.4294 344.8409 0006166 230.7435 129.3252 15.18362135 95390
FLOCK 4S-13             
1 47472U 21006BM  22288.12886979  .00018356  00000+0  90007-3 0  9996
2 47472  97.4321 345.0687 0005993 227.6167 132.4560 15.18157735 95392
FLOCK 4S-35             
1 47473U 21006BN  22288.12458700  .00039627  00000+0  18038-2 0  9991
2 47473  97.4299 345.2775 0005425 224.1217 135.9586 15.20571362 95413
FLOCK 4S-8              
1 47474U 21006BP  22287.12202584  .00006394  00000+0  34089-3 0  9998
2 47474  97.4255 342.8678 0006867 236.1457 123.9123 15.15501372 95200
FLOCK 4S-31             
1 47475U 21006BQ  22287.58032552  .00028413  00000+0  13551-2 0  9991
2 47475  97.4246 343.9594 0005498 222.7256 137.3552 15.19034568 95316
FLOCK 4S-34             
1 47477U 21006BS  22288.13548238  .00013952  00000+0  68569-3 0  9990
2 47477  97.4302 344.9414 0005657 225.0468 135.0308 15.18140725 95395
